start=new Date('2023-02-19T00:00:00.000Z').valueOf();
sats=[{"GP_ID":"225928500","BSTAR":"-0.00001167400000","MEAN_ANOMALY":"253.3078","EPOCH":"2023-02-18T14:51:00.430272","ECCENTRICITY":"0.00013070","DECAY_DATE":null,"MEAN_ELEMENT_THEORY":"SGP4","CENTER_NAME":"EARTH","REV_AT_EPOCH":"2119","CLASSIFICATION_TYPE":"U","SEMIMAJOR_AXIS":"6917.906","COUNTRY_CODE":"US","SITE":"AFWTR","NORAD_CAT_ID":"53990","TLE_LINE2":"2 53990  53.2147 179.9431 0001307 106.8058 253.3078 15.08831671 21194","LAUNCH_DATE":"2022-10-05","OBJECT_ID":"2022-125AC","INCLINATION":"53.2147","RCS_SIZE":"LARGE","FILE":"3807223","TIME_SYSTEM":"UTC","REF_FRAME":"TEME","MEAN_MOTION_DDOT":"0.0000000000000","ARG_OF_PERICENTER":"106.8058","OBJECT_NAME":"STARLINK-5075","APOAPSIS":"540.675","MEAN_MOTION_DOT":"-0.00000474","PERIAPSIS":"538.867","MEAN_MOTION":"15.08831671","OBJECT_TYPE":"PAYLOAD","TLE_LINE1":"1 53990U 22125AC  23049.61875498 -.00000474  00000-0 -11674-4 0  9994","ELEMENT_SET_NO":"999","PERIOD":"95.438","EPHEMERIS_TYPE":"0","RA_OF_ASC_NODE":"179.9431"},{"OBJECT_TYPE":"PAYLOAD","ELEMENT_SET_NO":"999","TLE_LINE1":"1 53991U 22125AD  23049.78779279 -.00001264  00000-0 -64385-4 0  9998","RA_OF_ASC_NODE":"166.0558","PERIOD":"95.540","EPHEMERIS_TYPE":"0","MEAN_MOTION_DOT":"-0.00001264","MEAN_MOTION":"15.07220478","PERIAPSIS":"543.979","OBJECT_NAME":"STARLINK-5118","MEAN_MOTION_DDOT":"0.0000000000000","ARG_OF_PERICENTER":"80.7758","REF_FRAME":"TEME","TIME_SYSTEM":"UTC","APOAPSIS":"545.421","RCS_SIZE":"LARGE","INCLINATION":"53.2197","FILE":"3807203","OBJECT_ID":"2022-125AD","TLE_LINE2":"2 53991  53.2197 166.0558 0001042  80.7758 279.3352 15.07220478 21403","NORAD_CAT_ID":"53991","LAUNCH_DATE":"2022-10-05","SITE":"AFWTR","COUNTRY_CODE":"US","SEMIMAJOR_AXIS":"6922.835","MEAN_ELEMENT_THEORY":"SGP4","REV_AT_EPOCH":"2140","CENTER_NAME":"EARTH","CLASSIFICATION_TYPE":"U","MEAN_ANOMALY":"279.3352","GP_ID":"225929584","BSTAR":"-0.00006438500000","EPOCH":"2023-02-18T18:54:25.297056","ECCENTRICITY":"0.00010420","DECAY_DATE":null},{"SEMIMAJOR_AXIS":"6917.878","SITE":"AFWTR","COUNTRY_CODE":"US","TLE_LINE2":"2 53992  53.2145 179.8994 0001707  90.3642 269.7546 15.08840933 21199","NORAD_CAT_ID":"53992","LAUNCH_DATE":"2022-10-05","OBJECT_ID":"2022-125AE","BSTAR":"0.00008444600000","GP_ID":"225929199","MEAN_ANOMALY":"269.7546","ECCENTRICITY":"0.00017070","EPOCH":"2023-02-18T14:40:22.819872","DECAY_DATE":null,"MEAN_ELEMENT_THEORY":"SGP4","REV_AT_EPOCH":"2119","CENTER_NAME":"EARTH","CLASSIFICATION_TYPE":"U","MEAN_MOTION_DOT":"0.00001056","MEAN_MOTION":"15.08840933","PERIAPSIS":"538.562","OBJECT_TYPE":"PAYLOAD","ELEMENT_SET_NO":"999","TLE_LINE1":"1 53992U 22125AE  23049.61137523  .00001056  00000-0  84446-4 0  9998","PERIOD":"95.437","EPHEMERIS_TYPE":"0","RA_OF_ASC_NODE":"179.8994","INCLINATION":"53.2145","RCS_SIZE":"LARGE","FILE":"3807203","TIME_SYSTEM":"UTC","REF_FRAME":"TEME","OBJECT_NAME":"STARLINK-5108","MEAN_MOTION_DDOT":"0.0000000000000","ARG_OF_PERICENTER":"90.3642","APOAPSIS":"540.923"},{"SEMIMAJOR_AXIS":"6917.868","SITE":"AFWTR","COUNTRY_CODE":"US","TLE_LINE2":"2 53993  53.2187 175.3506 0001234  74.7173 285.3955 15.08844181 21160","LAUNCH_DATE":"2022-10-05","NORAD_CAT_ID":"53993","OBJECT_ID":"2022-125AF","DECAY_DATE":null,"ECCENTRICITY":"0.00012340","EPOCH":"2023-02-18T10:55:47.592480","BSTAR":"-0.00006017700000","GP_ID":"225925638","MEAN_ANOMALY":"285.3955","CLASSIFICATION_TYPE":"U","CENTER_NAME":"EARTH","REV_AT_EPOCH":"2116","MEAN_ELEMENT_THEORY":"SGP4","PERIAPSIS":"538.879","MEAN_MOTION":"15.08844181","MEAN_MOTION_DOT":"-0.00001246","EPHEMERIS_TYPE":"0","PERIOD":"95.437","RA_OF_ASC_NODE":"175.3506","ELEMENT_SET_NO":"999","TLE_LINE1":"1 53993U 22125AF  23049.45541195 -.00001246  00000-0 -60177-4 0  9993","OBJECT_TYPE":"PAYLOAD","FILE":"3807124","INCLINATION":"53.2187","RCS_SIZE":"LARGE","APOAPSIS":"540.586","TIME_SYSTEM":"UTC","REF_FRAME":"TEME","ARG_OF_PERICENTER":"74.7173","MEAN_MOTION_DDOT":"0.0000000000000","OBJECT_NAME":"STARLINK-5121"},{"PERIAPSIS":"538.803","MEAN_MOTION":"15.08837273","MEAN_MOTION_DOT":"-0.00001114","RA_OF_ASC_NODE":"178.9384","EPHEMERIS_TYPE":"0","PERIOD":"95.438","ELEMENT_SET_NO":"999","TLE_LINE1":"1 53994U 22125AG  23049.79904890 -.00001114  00000-0 -51939-4 0  9996","OBJECT_TYPE":"PAYLOAD","FILE":"3807207","RCS_SIZE":"LARGE","INCLINATION":"53.2146","APOAPSIS":"540.705","OBJECT_NAME":"STARLINK-5125","MEAN_MOTION_DDOT":"0.0000000000000","ARG_OF_PERICENTER":"96.2608","TIME_SYSTEM":"UTC","REF_FRAME":"TEME","SITE":"AFWTR","COUNTRY_CODE":"US","SEMIMAJOR_AXIS":"6917.889","OBJECT_ID":"2022-125AG","TLE_LINE2":"2 53994  53.2146 178.9384 0001375  96.2608 263.8541 15.08837273 21220","LAUNCH_DATE":"2022-10-05","NORAD_CAT_ID":"53994","DECAY_DATE":null,"ECCENTRICITY":"0.00013750","EPOCH":"2023-02-18T19:10:37.824960","MEAN_ANOMALY":"263.8541","GP_ID":"225929267","BSTAR":"-0.00005193900000","CLASSIFICATION_TYPE":"U","REV_AT_EPOCH":"2122","CENTER_NAME":"EARTH","MEAN_ELEMENT_THEORY":"SGP4"},{"CENTER_NAME":"EARTH","REV_AT_EPOCH":"2122","CLASSIFICATION_TYPE":"U","MEAN_ELEMENT_THEORY":"SGP4","EPOCH":"2023-02-18T19:21:14.422752","ECCENTRICITY":"0.00011830","DECAY_DATE":null,"BSTAR":"0.00186070000000","GP_ID":"225929265","MEAN_ANOMALY":"285.0293","TLE_LINE2":"2 53995  53.2134 178.9852 0001183  75.0830 285.0293 15.08853106 21220","LAUNCH_DATE":"2022-10-05","NORAD_CAT_ID":"53995","OBJECT_ID":"2022-125AH","SEMIMAJOR_AXIS":"6917.840","SITE":"AFWTR","COUNTRY_CODE":"US","APOAPSIS":"540.524","REF_FRAME":"TEME","TIME_SYSTEM":"UTC","ARG_OF_PERICENTER":"75.0830","MEAN_MOTION_DDOT":"0.0000000000000","OBJECT_NAME":"STARLINK-5097","FILE":"3807207","INCLINATION":"53.2134","RCS_SIZE":"LARGE","PERIOD":"95.437","EPHEMERIS_TYPE":"0","RA_OF_ASC_NODE":"178.9852","OBJECT_TYPE":"PAYLOAD","TLE_LINE1":"1 53995U 22125AH  23049.80641693  .00029460  00000-0  18607-2 0  9993","ELEMENT_SET_NO":"999","MEAN_MOTION_DOT":"0.00029460","PERIAPSIS":"538.887","MEAN_MOTION":"15.08853106"},{"OBJECT_NAME":"STARLINK-5131","MEAN_MOTION_DDOT":"0.0000000000000","ARG_OF_PERICENTER":"97.3163","TIME_SYSTEM":"UTC","REF_FRAME":"TEME","APOAPSIS":"540.657","RCS_SIZE":"LARGE","INCLINATION":"53.2137","FILE":"3807124","TLE_LINE1":"1 53996U 22125AJ  23049.39791703  .00003867  00000-0  26097-3 0  9992","ELEMENT_SET_NO":"999","OBJECT_TYPE":"PAYLOAD","RA_OF_ASC_NODE":"180.7017","EPHEMERIS_TYPE":"0","PERIOD":"95.438","PERIAPSIS":"538.908","MEAN_MOTION":"15.08827817","MEAN_MOTION_DOT":"0.00003867","MEAN_ELEMENT_THEORY":"SGP4","CLASSIFICATION_TYPE":"U","CENTER_NAME":"EARTH","REV_AT_EPOCH":"2109","BSTAR":"0.00026097000000","GP_ID":"225927371","MEAN_ANOMALY":"262.7973","DECAY_DATE":null,"ECCENTRICITY":"0.00012640","EPOCH":"2023-02-18T09:33:00.031392","OBJECT_ID":"2022-125AJ","TLE_LINE2":"2 53996  53.2137 180.7017 0001264  97.3163 262.7973 15.08827817 21096","LAUNCH_DATE":"2022-10-05","NORAD_CAT_ID":"53996","SITE":"AFWTR","COUNTRY_CODE":"US","SEMIMAJOR_AXIS":"6917.918"},{"RCS_SIZE":"LARGE","INCLINATION":"53.2186","FILE":"3807124","ARG_OF_PERICENTER":"102.0024","MEAN_MOTION_DDOT":"0.0000000000000","OBJECT_NAME":"STARLINK-5130","REF_FRAME":"TEME","TIME_SYSTEM":"UTC","APOAPSIS":"540.204","PERIAPSIS":"539.370","MEAN_MOTION":"15.08826457","MEAN_MOTION_DOT":"-0.00001090","ELEMENT_SET_NO":"999","TLE_LINE1":"1 53997U 22125AK  23049.63073235 -.00001090  00000-0 -50452-4 0  9994","OBJECT_TYPE":"PAYLOAD","RA_OF_ASC_NODE":"170.0364","EPHEMERIS_TYPE":"0","PERIOD":"95.438","MEAN_ANOMALY":"258.1036","GP_ID":"225926133","BSTAR":"-0.00005045200000","DECAY_DATE":null,"ECCENTRICITY":"0.00006030","EPOCH":"2023-02-18T15:08:15.275040","MEAN_ELEMENT_THEORY":"SGP4","CLASSIFICATION_TYPE":"U","REV_AT_EPOCH":"2126","CENTER_NAME":"EARTH","SITE":"AFWTR","COUNTRY_CODE":"US","SEMIMAJOR_AXIS":"6917.922","OBJECT_ID":"2022-125AK","TLE_LINE2":"2 53997  53.2186 170.0364 0000603 102.0024 258.1036 15.08826457 21261","LAUNCH_DATE":"2022-10-05","NORAD_CAT_ID":"53997"},{"SEMIMAJOR_AXIS":"6917.901","COUNTRY_CODE":"US","SITE":"AFWTR","LAUNCH_DATE":"2022-10-05","TLE_LINE2":"2 53998  53.2155 179.4715 0001058  88.3647 271.7466 15.08833333 21206","NORAD_CAT_ID":"53998","OBJECT_ID":"2022-125AL","DECAY_DATE":null,"ECCENTRICITY":"0.00010580","EPOCH":"2023-02-18T15:45:19.202400","BSTAR":"0.00006454200000","GP_ID":"225930237","MEAN_ANOMALY":"271.7466","CLASSIFICATION_TYPE":"U","REV_AT_EPOCH":"2120","CENTER_NAME":"EARTH","MEAN_ELEMENT_THEORY":"SGP4","PERIAPSIS":"539.034","MEAN_MOTION":"15.08833333","MEAN_MOTION_DOT":"0.00000739","EPHEMERIS_TYPE":"0","PERIOD":"95.438","RA_OF_ASC_NODE":"179.4715","TLE_LINE1":"1 53998U 22125AL  23049.65647225  .00000739  00000-0  64542-4 0  9995","ELEMENT_SET_NO":"999","OBJECT_TYPE":"PAYLOAD","FILE":"3807263","INCLINATION":"53.2155","RCS_SIZE":"LARGE","APOAPSIS":"540.498","TIME_SYSTEM":"UTC","REF_FRAME":"TEME","MEAN_MOTION_DDOT":"0.0000000000000","ARG_OF_PERICENTER":"88.3647","OBJECT_NAME":"STARLINK-5128"},{"MEAN_MOTION_DOT":"0.00016618","MEAN_MOTION":"15.08831992","PERIAPSIS":"538.811","PERIOD":"95.438","EPHEMERIS_TYPE":"0","RA_OF_ASC_NODE":"179.8524","OBJECT_TYPE":"PAYLOAD","ELEMENT_SET_NO":"999","TLE_LINE1":"1 53999U 22125AM  23049.60401506  .00016618  00000-0  10600-2 0  9998","FILE":"3807255","INCLINATION":"53.2156","RCS_SIZE":"LARGE","APOAPSIS":"540.729","TIME_SYSTEM":"UTC","REF_FRAME":"TEME","MEAN_MOTION_DDOT":"0.0000000000000","ARG_OF_PERICENTER":"81.2174","OBJECT_NAME":"STARLINK-5079","SEMIMAJOR_AXIS":"6917.905","SITE":"AFWTR","COUNTRY_CODE":"US","LAUNCH_DATE":"2022-10-05","TLE_LINE2":"2 53999  53.2156 179.8524 0001386  81.2174 278.8975 15.08831992 21191","NORAD_CAT_ID":"53999","OBJECT_ID":"2022-125AM","ECCENTRICITY":"0.00013860","EPOCH":"2023-02-18T14:29:46.901184","DECAY_DATE":null,"MEAN_ANOMALY":"278.8975","GP_ID":"225930256","BSTAR":"0.00106000000000","CENTER_NAME":"EARTH","REV_AT_EPOCH":"2119","CLASSIFICATION_TYPE":"U","MEAN_ELEMENT_THEORY":"SGP4"}];
